TIANMU-1 21             
1 58662U 23208C   26188.19212230  .00007309  00000+0  21451-3 0  9991
2 58662  97.4518 308.0241 0006018 235.9492 124.1181 15.35450366140630
TIANMU-1 22             
1 58663U 23208D   26188.20072802  .00005738  00000+0  19213-3 0  9990
2 58663  97.4512 304.5274 0002251 260.9764  99.1222 15.31349669140396
TIANMU-1 15             
1 58700U 24004A   26188.21754490  .00003920  00000+0  15138-3 0  9991
2 58700  97.4675  14.4082 0005668 263.7492  96.3101 15.26857681138839
TIANMU-1 16             
1 58701U 24004B   26188.20754966  .00003797  00000+0  14627-3 0  9993
2 58701  97.4622  13.6192 0004318 284.2953  75.7806 15.26959999138834
TIANMU-1 17             
1 58702U 24004C   26188.19302162  .00004102  00000+0  15780-3 0  9991
2 58702  97.4649  14.0970 0003885 292.2524  67.8303 15.26958408138821
TIANMU-1 18             
1 58703U 24004D   26188.16866749  .00003939  00000+0  15203-3 0  9992
2 58703  97.4667  14.3344 0003377 264.4903  95.5950 15.26875294138825
INSAT-3DS               
1 58990U 24033A   26188.08999721 -.00000141  00000+0  00000+0 0  9998
2 58990   0.0813  95.6917 0001132  19.9367 283.8998  1.00272583 47268
METEOR-M2 4             
1 59051U 24039A   26188.16055593  .00000015  00000+0  26288-4 0  9992
2 59051  98.7020 147.2085 0008159 108.7385 251.4679 14.22431588122108
GOES 19                 
1 60133U 24119A   26188.13013677 -.00000233  00000+0  00000+0 0  9990
2 60133   0.0367 227.9200 0000445 314.2171  74.6214  1.00271959  7167
MTG-S1                  
1 64723U 25143A   26188.14497455  .00000007  00000+0  00000+0 0  9996
2 64723   0.5891 343.1246 0003251 262.1294  91.6064  1.00272511  3612
METOP-SGA1              
1 65159U 25172A   26188.15353631  .00000017  00000+0  28532-4 0  9996
2 65159  98.6633 247.4590 0007515 356.5024   3.6098 14.19818296 46620
FENGYUN 3H              
1 65815U 25219A   26187.70110953  .00000055  00000+0  46424-4 0  9997
2 65815  98.6770 128.0911 0001327  64.9068 295.2246 14.19923910 40151
