OBJECT_NAME,OBJECT_ID,EPOCH,MEAN_MOTION,ECCENTRICITY,INCLINATION,RA_OF_ASC_NODE,ARG_OF_PERICENTER,MEAN_ANOMALY,EPHEMERIS_TYPE,CLASSIFICATION_TYPE,NORAD_CAT_ID,ELEMENT_SET_NO,REV_AT_EPOCH,BSTAR,MEAN_MOTION_DOT,MEAN_MOTION_DDOT
TIANMU-1 21,2023-208C,2026-07-07T04:36:39.366720,15.35450366,.0006018,97.4518,308.0241,235.9492,124.1181,0,U,58662,999,14063,.21451E-3,.7309E-4,0
TIANMU-1 22,2023-208D,2026-07-07T04:49:02.900928,15.31349669,.0002251,97.4512,304.5274,260.9764,99.1222,0,U,58663,999,14039,.19213E-3,.5738E-4,0
TIANMU-1 15,2024-004A,2026-07-07T05:13:15.879360,15.26857681,.0005668,97.4675,14.4082,263.7492,96.3101,0,U,58700,999,13883,.15138E-3,.392E-4,0
TIANMU-1 16,2024-004B,2026-07-07T04:58:52.290624,15.26959999,.0004318,97.4622,13.6192,284.2953,75.7806,0,U,58701,999,13883,.14627E-3,.3797E-4,0
TIANMU-1 17,2024-004C,2026-07-07T04:37:57.067968,15.26958408,.0003885,97.4649,14.0970,292.2524,67.8303,0,U,58702,999,13882,.1578E-3,.4102E-4,0
TIANMU-1 18,2024-004D,2026-07-07T04:02:52.871136,15.26875294,.0003377,97.4667,14.3344,264.4903,95.5950,0,U,58703,999,13882,.15203E-3,.3939E-4,0
INSAT-3DS,2024-033A,2026-07-07T02:09:35.758944,1.00272583,.0001132,0.0813,95.6917,19.9367,283.8998,0,U,58990,999,4726,0,-.141E-5,0
METEOR-M2 4,2024-039A,2026-07-07T03:51:12.032352,14.22431588,.0008159,98.7020,147.2085,108.7385,251.4679,0,U,59051,999,12210,.26288E-4,.15E-6,0
GOES 19,2024-119A,2026-07-07T03:07:23.816928,1.00271959,.0000445,0.0367,227.9200,314.2171,74.6214,0,U,60133,999,716,0,-.233E-5,0
MTG-S1,2025-143A,2026-07-07T03:28:45.801120,1.00272511,.0003251,0.5891,343.1246,262.1294,91.6064,0,U,64723,999,361,0,.7E-7,0
METOP-SGA1,2025-172A,2026-07-07T03:41:05.537184,14.19818296,.0007515,98.6633,247.4590,356.5024,3.6098,0,U,65159,999,4662,.28532E-4,.17E-6,0
FENGYUN 3H,2025-219A,2026-07-06T16:49:35.863392,14.19923910,.0001327,98.6770,128.0911,64.9068,295.2246,0,U,65815,999,4015,.46424E-4,.55E-6,0
